NORAD_CAT_ID,OBJECT_NAME,OBJECT_TYPE,EPOCH,MEAN_MOTION,ECCENTRICITY,INCLINATION,RA_OF_ASC_NODE,ARG_OF_PERICENTER,MEAN_ANOMALY,BSTAR,MEAN_MOTION_DOT,MEAN_MOTION_DDOT,TLE_LINE0,TLE_LINE1,TLE_LINE2,SEMIMAJOR_AXIS,PERIOD,APOGEE,PERIGEE,DECAYED
52309.0,STARLINK-3756,PAYLOAD,2024-02-18 14:24:13,15.08844344,0.0001429,53.2164,216.4021,92.4813,267.6343,3.893e-05,3.32e-06,0.0,0 STARLINK-3756,1 52309U 22041BA  24049.60015153  .00000332  00000-0  38930-4 0  9993,2 52309  53.2164 216.4021 0001429  92.4813 267.6343 15.08844344102624,6917.867,95.437,540.721,538.744,0.0
52309.0,STARLINK-3756,PAYLOAD,2024-02-18 20:45:45,15.08850859,0.0001404,53.2166,215.2114,104.8893,255.2255,3.2781e-05,2.34e-06,0.0,0 STARLINK-3756,1 52309U 22041BA  24049.86510605  .00000234  00000-0  32781-4 0  9992,2 52309  53.2166 215.2114 0001404 104.8893 255.2255 15.08850859102662,6917.847,95.437,540.683,538.741,0.0
52309.0,STARLINK-3756,PAYLOAD,2024-02-19 14:15:00,15.0884051,0.0001743,53.217,211.9379,102.383,257.7357,-0.00010912,-2.024e-05,0.0,0 STARLINK-3756,1 52309U 22041BA  24050.59375761 -.00002024  00000-0 -10912-3 0  9998,2 52309  53.2170 211.9379 0001743 102.3830 257.7357 15.08840510102778,6917.879,95.438,540.95,538.538,0.0
52309.0,STARLINK-3756,PAYLOAD,2024-02-19 17:25:47,15.0883365,0.0001284,53.2164,211.3462,90.5214,269.5925,2.6174e-05,1.29e-06,0.0,0 STARLINK-3756,1 52309U 22041BA  24050.72623938  .00000129  00000-0  26174-4 0  9995,2 52309  53.2164 211.3462 0001284  90.5214 269.5925 15.08833650102793,6917.9,95.438,540.653,538.877,0.0
52309.0,STARLINK-3756,PAYLOAD,2024-02-19 20:36:33,15.08836097,0.0001323,53.2164,210.7513,91.9328,268.1816,1.4555e-05,-5.6e-07,0.0,0 STARLINK-3756,1 52309U 22041BA  24050.85871803 -.00000056  00000-0  14555-4 0  9995,2 52309  53.2164 210.7513 0001323  91.9328 268.1816 15.08836097102813,6917.892,95.438,540.673,538.842,0.0
52309.0,STARLINK-3756,PAYLOAD,2024-02-20 14:05:47,15.08840076,0.0001343,53.2166,207.48,90.1279,269.9867,4.307e-05,3.98e-06,0.0,0 STARLINK-3756,1 52309U 22041BA  24051.58735679  .00000398  00000-0  43070-4 0  9998,2 52309  53.2166 207.4800 0001343  90.1279 269.9867 15.08840076102924,6917.88,95.438,540.674,538.816,0.0
52309.0,STARLINK-3756,PAYLOAD,2024-02-20 17:16:33,15.08844928,0.0001312,53.2166,206.885,88.0038,272.1105,4.6919e-05,4.59e-06,0.0,0 STARLINK-3756,1 52309U 22041BA  24051.71983387  .00000459  00000-0  46919-4 0  9997,2 52309  53.2166 206.8850 0001312  88.0038 272.1105 15.08844928102940,6917.865,95.437,540.638,538.823,0.0
52309.0,STARLINK-3756,PAYLOAD,2024-02-21 13:56:35,15.08833364,0.0001313,53.2175,203.0222,89.0424,271.0718,4.967e-05,5.03e-06,0.0,0 STARLINK-3756,1 52309U 22041BA  24052.58096284  .00000503  00000-0  49670-4 0  9991,2 52309  53.2175 203.0222 0001313  89.0424 271.0718 15.08833364103078,6917.901,95.438,540.674,538.857,0.0
52309.0,STARLINK-3756,PAYLOAD,2024-02-21 17:07:21,15.08836233,0.0001345,53.217,202.4277,90.5498,269.5649,5.6621e-05,6.13e-06,0.0,0 STARLINK-3756,1 52309U 22041BA  24052.71344104  .00000613  00000-0  56621-4 0  9999,2 52309  53.2170 202.4277 0001345  90.5498 269.5649 15.08836233103094,6917.892,95.438,540.687,538.826,0.0
52309.0,STARLINK-3756,PAYLOAD,2024-02-22 13:47:22,15.08839258,0.0001413,53.2176,198.5633,99.3545,260.7607,8.5145e-06,-1.52e-06,0.0,0 STARLINK-3756,1 52309U 22041BA  24053.57456241 -.00000152  00000-0  85145-5 0  9993,2 52309  53.2176 198.5633 0001413  99.3545 260.7607 15.08839258103229,6917.883,95.438,540.725,538.77,0.0
52309.0,STARLINK-3756,PAYLOAD,2024-02-22 16:58:08,15.08842292,0.0001679,53.2175,197.9684,105.137,254.9808,2.6123e-05,1.28e-06,0.0,0 STARLINK-3756,1 52309U 22041BA  24053.70703995  .00000128  00000-0  26123-4 0  9991,2 52309  53.2175 197.9684 0001679 105.1370 254.9808 15.08842292103245,6917.873,95.437,540.9,538.577,0.0
52309.0,STARLINK-3756,PAYLOAD,2024-02-23 13:38:09,15.08822896,0.0001582,53.2175,194.1014,104.4562,255.6605,0.00016063,2.268e-05,0.0,0 STARLINK-3756,1 52309U 22041BA  24054.56816891  .00002268  00000-0  16063-3 0  9994,2 52309  53.2175 194.1014 0001582 104.4562 255.6605 15.08822896103374,6917.933,95.439,540.892,538.703,0.0
52309.0,STARLINK-3756,PAYLOAD,2024-02-23 18:24:18,15.08838866,0.0001442,53.2176,193.2066,87.5303,272.5854,1.6849e-05,-2e-07,0.0,0 STARLINK-3756,1 52309U 22041BA  24054.76688563 -.00000020  00000-0  16849-4 0  9997,2 52309  53.2176 193.2066 0001442  87.5303 272.5854 15.08838866103403,6917.884,95.438,540.746,538.751,0.0
52309.0,STARLINK-3756,PAYLOAD,2024-02-24 15:04:19,15.08841609,0.0001238,53.2166,189.3426,87.9277,272.1857,8.9798e-05,1.142e-05,0.0,0 STARLINK-3756,1 52309U 22041BA  24055.62800216  .00001142  00000-0  89798-4 0  9992,2 52309  53.2166 189.3426 0001238  87.9277 272.1857 15.08841609103537,6917.875,95.437,540.597,538.884,0.0
52309.0,STARLINK-3756,PAYLOAD,2024-02-25 08:33:33,15.0884442,0.0001182,53.2169,186.0705,86.8983,273.2145,7.0587e-05,8.36e-06,0.0,0 STARLINK-3756,1 52309U 22041BA  24056.35664054  .00000836  00000-0  70587-4 0  9996,2 52309  53.2169 186.0705 0001182  86.8983 273.2145 15.08844420103642,6917.867,95.437,540.55,538.914,0.0
52309.0,STARLINK-3756,PAYLOAD,2024-02-25 14:55:05,15.08849453,0.0001204,53.2167,184.8823,86.6155,273.4975,0.0001095,1.456e-05,0.0,0 STARLINK-3756,1 52309U 22041BA  24056.62159518  .00001456  00000-0  10950-3 0  9996,2 52309  53.2167 184.8823 0001204  86.6155 273.4975 15.08849453103689,6917.851,95.437,540.549,538.884,0.0
52309.0,STARLINK-3756,PAYLOAD,2024-02-26 11:35:08,15.08823455,0.0001287,53.2178,181.0179,84.3823,275.7316,-0.00013786,-2.48e-05,0.0,0 STARLINK-3756,1 52309U 22041BA  24057.48273989 -.00002480  00000-0 -13786-3 0  9990,2 52309  53.2178 181.0179 0001287  84.3823 275.7316 15.08823455103815,6917.931,95.439,540.686,538.906,0.0
52309.0,STARLINK-3756,PAYLOAD,2024-02-26 14:45:54,15.08830459,0.0001411,53.2181,180.423,87.1411,272.9742,-8.4676e-05,-1.635e-05,0.0,0 STARLINK-3756,1 52309U 22041BA  24057.61521512 -.00001635  00000-0 -84676-4 0  9991,2 52309  53.2181 180.4230 0001411  87.1411 272.9742 15.08830459103839,6917.91,95.438,540.751,538.798,0.0
52309.0,STARLINK-3756,PAYLOAD,2024-02-27 11:25:54,15.08848547,0.0001496,53.2178,176.5551,108.9831,251.1324,2.7583e-05,1.51e-06,0.0,0 STARLINK-3756,1 52309U 22041BA  24058.47632032  .00000151  00000-0  27583-4 0  9990,2 52309  53.2178 176.5551 0001496 108.9831 251.1324 15.08848547103964,6917.854,95.437,540.754,538.684,0.0
52309.0,STARLINK-3756,PAYLOAD,2024-02-27 14:36:40,15.08852016,0.000145,53.2182,175.9627,93.4774,266.6384,7.3564e-05,8.83e-06,0.0,0 STARLINK-3756,1 52309U 22041BA  24058.60879719  .00000883  00000-0  73564-4 0  9992,2 52309  53.2182 175.9627 0001450  93.4774 266.6384 15.08852016103985,6917.844,95.437,540.712,538.706,0.0
52309.0,STARLINK-3756,PAYLOAD,2024-02-27 17:47:26,15.08856529,0.0001354,53.217,175.3636,89.0319,271.0828,8.1535e-05,1.01e-05,0.0,0 STARLINK-3756,1 52309U 22041BA  24058.74127337  .00001010  00000-0  81535-4 0  9999,2 52309  53.2170 175.3636 0001354  89.0319 271.0828 15.08856529104005,6917.83,95.437,540.632,538.758,0.0
52309.0,STARLINK-3756,PAYLOAD,2024-02-28 00:09:00,15.08835529,0.0001397,53.2178,174.1765,95.2878,264.8274,-0.00010611,-1.976e-05,0.0,0 STARLINK-3756,1 52309U 22041BA  24059.00625079 -.00001976  00000-0 -10611-3 0  9994,2 52309  53.2178 174.1765 0001397  95.2878 264.8274 15.08835529104045,6917.894,95.438,540.725,538.793,0.0
52309.0,STARLINK-3756,PAYLOAD,2024-02-28 14:27:28,15.08830352,0.0001364,53.2171,171.501,94.2973,265.8175,0.00016934,2.407e-05,0.0,0 STARLINK-3756,1 52309U 22041BA  24059.60241308  .00002407  00000-0  16934-3 0  9991,2 52309  53.2171 171.5010 0001364  94.2973 265.8175 15.08830352104131,6917.91,95.438,540.718,538.831,0.0
52309.0,STARLINK-3756,PAYLOAD,2024-02-28 17:38:14,15.0883614,0.0001211,53.2168,170.9059,96.4538,263.6592,9.0471e-05,1.152e-05,0.0,0 STARLINK-3756,1 52309U 22041BA  24059.73489091  .00001152  00000-0  90471-4 0  9993,2 52309  53.2168 170.9059 0001211  96.4538 263.6592 15.08836140104157,6917.892,95.438,540.595,538.919,0.0
52309.0,STARLINK-3756,PAYLOAD,2024-02-29 11:07:28,15.08844332,0.0001285,53.2168,167.6352,93.9747,266.1392,1.3352e-05,-7.5e-07,0.0,0 STARLINK-3756,1 52309U 22041BA  24060.46352955 -.00000075  00000-0  13352-4 0  9990,2 52309  53.2168 167.6352 0001285  93.9747 266.1392 15.08844332104261,6917.867,95.437,540.621,538.843,0.0
52309.0,STARLINK-3756,PAYLOAD,2024-02-29 14:18:14,15.08846849,0.0001258,53.2167,167.0409,97.0745,263.039,4.791e-05,4.75e-06,0.0,0 STARLINK-3756,1 52309U 22041BA  24060.59600649  .00000475  00000-0  47910-4 0  9990,2 52309  53.2167 167.0409 0001258  97.0745 263.0390 15.08846849104281,6917.859,95.437,540.595,538.854,0.0
52309.0,STARLINK-3756,PAYLOAD,2024-03-01 10:58:16,15.08837322,0.0001402,53.218,163.1772,100.593,259.522,0.0001119,1.493e-05,0.0,0 STARLINK-3756,1 52309U 22041BA  24061.45713264  .00001493  00000-0  11190-3 0  9995,2 52309  53.2180 163.1772 0001402 100.5930 259.5220 15.08837322104416,6917.889,95.438,540.723,538.784,0.0
52309.0,STARLINK-3756,PAYLOAD,2024-03-01 14:09:02,15.08843535,0.0001401,53.2176,162.5824,98.6135,261.5016,0.00011021,1.467e-05,0.0,0 STARLINK-3756,1 52309U 22041BA  24061.58960891  .00001467  00000-0  11021-3 0  9993,2 52309  53.2176 162.5824 0001401  98.6135 261.5016 15.08843535104436,6917.87,95.437,540.704,538.765,0.0
52309.0,STARLINK-3756,PAYLOAD,2024-03-01 15:44:24,15.08849021,0.0001414,53.2174,162.2849,102.2923,257.8228,0.00016063,2.27e-05,0.0,0 STARLINK-3756,1 52309U 22041BA  24061.65584351  .00002270  00000-0  16063-3 0  9998,2 52309  53.2174 162.2849 0001414 102.2923 257.8228 15.08849021104449,6917.853,95.437,540.696,538.74,0.0
52309.0,STARLINK-3756,PAYLOAD,2024-03-02 12:24:25,15.08847103,0.0001532,53.2176,158.4188,100.4537,259.6628,9.3613e-05,1.202e-05,0.0,0 STARLINK-3756,1 52309U 22041BA  24062.51696473  .00001202  00000-0  93613-4 0  9994,2 52309  53.2176 158.4188 0001532 100.4537 259.6628 15.08847103104573,6917.859,95.437,540.783,538.664,0.0
